[{"OBJECT_NAME":"STARLINK-30403","OBJECT_ID":"2023-138F","EPOCH":"2026-03-09T12:43:46.572960","MEAN_MOTION":15.26746502,"ECCENTRICITY":0.00015402,"INCLINATION":43.0012,"RA_OF_ASC_NODE":235.1058,"ARG_OF_PERICENTER":272.1014,"MEAN_ANOMALY":87.9661,"EPHEMERIS_TYPE":0,"CLASSIFICATION_TYPE":"U","NORAD_CAT_ID":57813,"ELEMENT_SET_NO":999,"REV_AT_EPOCH":13861,"BSTAR":-8.5999161e-5,"MEAN_MOTION_DOT":-2.566e-5,"MEAN_MOTION_DDOT":0},{"OBJECT_NAME":"OBJECT H","OBJECT_ID":"2026-023H","EPOCH":"2026-03-09T17:12:47.154816","MEAN_MOTION":15.23139098,"ECCENTRICITY":0.00239537,"INCLINATION":96.639,"RA_OF_ASC_NODE":144.1723,"ARG_OF_PERICENTER":117.6533,"MEAN_ANOMALY":242.7142,"EPHEMERIS_TYPE":0,"CLASSIFICATION_TYPE":"U","NORAD_CAT_ID":67681,"ELEMENT_SET_NO":999,"REV_AT_EPOCH":484,"BSTAR":0.00052586846,"MEAN_MOTION_DOT":0.00012465,"MEAN_MOTION_DDOT":0}]
